start=new Date('2022-11-27T00:00:00.000Z').valueOf();
sats=[{"SITE":"AFETR","NORAD_CAT_ID":"53032","LAUNCH_DATE":"2022-07-07","FILE":"3671048","COUNTRY_CODE":"US","GP_ID":"218895564","CLASSIFICATION_TYPE":"U","MEAN_ANOMALY":"300.2000","MEAN_ELEMENT_THEORY":"SGP4","APOAPSIS":"540.901","PERIOD":"95.437","ARG_OF_PERICENTER":"59.9159","MEAN_MOTION_DOT":"0.00001005","REV_AT_EPOCH":"2196","OBJECT_NAME":"STARLINK-4115","ELEMENT_SET_NO":"999","ECCENTRICITY":"0.00016930","TLE_LINE2":"2 53032  53.2201  67.1551 0001693  59.9159 300.2000 15.08845175 21967","PERIAPSIS":"538.558","REF_FRAME":"TEME","MEAN_MOTION_DDOT":"0.0000000000000","EPOCH":"2022-11-26T13:43:43.250304","TLE_LINE1":"1 53032U 22076AY  22330.57202836  .00001005  00000-0  81250-4 0  9999","RCS_SIZE":"LARGE","RA_OF_ASC_NODE":"67.1551","EPHEMERIS_TYPE":"0","BSTAR":"0.00008125000000","INCLINATION":"53.2201","CENTER_NAME":"EARTH","OBJECT_ID":"2022-076AY","SEMIMAJOR_AXIS":"6917.865","OBJECT_TYPE":"PAYLOAD","DECAY_DATE":null,"TIME_SYSTEM":"UTC","MEAN_MOTION":"15.08845175"},{"EPOCH":"2022-11-26T13:07:56.833248","TLE_LINE1":"1 53033U 22076AZ  22330.54718557  .00000900  00000-0  74607-4 0  9990","ARG_OF_PERICENTER":"50.6854","MEAN_MOTION_DOT":"0.00000900","REV_AT_EPOCH":"2209","OBJECT_NAME":"STARLINK-4167","ECCENTRICITY":"0.00016130","ELEMENT_SET_NO":"999","TLE_LINE2":"2 53033  53.2182  57.2833 0001613  50.6854 309.4281 15.08850409 22094","REF_FRAME":"TEME","PERIAPSIS":"538.598","MEAN_MOTION_DDOT":"0.0000000000000","FILE":"3670770","LAUNCH_DATE":"2022-07-07","GP_ID":"218863722","COUNTRY_CODE":"US","CLASSIFICATION_TYPE":"U","MEAN_ANOMALY":"309.4281","PERIOD":"95.437","APOAPSIS":"540.829","MEAN_ELEMENT_THEORY":"SGP4","SITE":"AFETR","NORAD_CAT_ID":"53033","SEMIMAJOR_AXIS":"6917.849","OBJECT_TYPE":"PAYLOAD","DECAY_DATE":null,"TIME_SYSTEM":"UTC","MEAN_MOTION":"15.08850409","INCLINATION":"53.2182","CENTER_NAME":"EARTH","OBJECT_ID":"2022-076AZ","RCS_SIZE":"LARGE","RA_OF_ASC_NODE":"57.2833","EPHEMERIS_TYPE":"0","BSTAR":"0.00007460700000"},{"TLE_LINE2":"2 53034  53.2167  56.6653 0001366  64.5425 295.5709 15.08837219 22111","ELEMENT_SET_NO":"999","ECCENTRICITY":"0.00013660","MEAN_MOTION_DDOT":"0.0000000000000","PERIAPSIS":"538.809","REF_FRAME":"TEME","MEAN_MOTION_DOT":"-0.00000167","ARG_OF_PERICENTER":"64.5425","OBJECT_NAME":"STARLINK-4151","REV_AT_EPOCH":"2211","TLE_LINE1":"1 53034U 22076BA  22330.68334780 -.00000167  00000-0  76028-5 0  9994","EPOCH":"2022-11-26T16:24:01.249920","NORAD_CAT_ID":"53034","SITE":"AFETR","MEAN_ANOMALY":"295.5709","APOAPSIS":"540.699","PERIOD":"95.438","MEAN_ELEMENT_THEORY":"SGP4","FILE":"3671048","LAUNCH_DATE":"2022-07-07","CLASSIFICATION_TYPE":"U","GP_ID":"218896267","COUNTRY_CODE":"US","DECAY_DATE":null,"MEAN_MOTION":"15.08837219","TIME_SYSTEM":"UTC","SEMIMAJOR_AXIS":"6917.889","OBJECT_TYPE":"PAYLOAD","BSTAR":"0.00000760280000","EPHEMERIS_TYPE":"0","RA_OF_ASC_NODE":"56.6653","RCS_SIZE":"LARGE","CENTER_NAME":"EARTH","OBJECT_ID":"2022-076BA","INCLINATION":"53.2167"},{"OBJECT_NAME":"STARLINK-4157","REV_AT_EPOCH":"2255","MEAN_MOTION_DOT":"0.00001453","ARG_OF_PERICENTER":"46.9980","REF_FRAME":"TEME","PERIAPSIS":"538.500","MEAN_MOTION_DDOT":"0.0000000000000","TLE_LINE2":"2 53035  53.2189  57.3180 0001749  46.9980 313.1159 15.08851538 22558","ECCENTRICITY":"0.00017490","ELEMENT_SET_NO":"999","EPOCH":"2022-11-26T12:57:21.003552","TLE_LINE1":"1 53035U 22076BB  22330.53982643  .00001453  00000-0  10935-3 0  9997","NORAD_CAT_ID":"53035","SITE":"AFETR","CLASSIFICATION_TYPE":"U","GP_ID":"218837592","COUNTRY_CODE":"US","FILE":"3670752","LAUNCH_DATE":"2022-07-07","PERIOD":"95.437","APOAPSIS":"540.920","MEAN_ELEMENT_THEORY":"SGP4","MEAN_ANOMALY":"313.1159","OBJECT_TYPE":"PAYLOAD","SEMIMAJOR_AXIS":"6917.845","MEAN_MOTION":"15.08851538","TIME_SYSTEM":"UTC","DECAY_DATE":null,"RA_OF_ASC_NODE":"57.3180","RCS_SIZE":"LARGE","BSTAR":"0.00010935000000","EPHEMERIS_TYPE":"0","INCLINATION":"53.2189","OBJECT_ID":"2022-076BB","CENTER_NAME":"EARTH"},{"SITE":"AFETR","NORAD_CAT_ID":"53036","MEAN_ANOMALY":"308.3342","PERIOD":"95.437","APOAPSIS":"541.043","MEAN_ELEMENT_THEORY":"SGP4","FILE":"3671048","LAUNCH_DATE":"2022-07-07","GP_ID":"218895211","COUNTRY_CODE":"US","CLASSIFICATION_TYPE":"U","ELEMENT_SET_NO":"999","ECCENTRICITY":"0.00019410","TLE_LINE2":"2 53036  53.2192  56.7392 0001941  51.7824 308.3342 15.08854743 22119","PERIAPSIS":"538.358","REF_FRAME":"TEME","MEAN_MOTION_DDOT":"0.0000000000000","ARG_OF_PERICENTER":"51.7824","MEAN_MOTION_DOT":"0.00002431","REV_AT_EPOCH":"2211","OBJECT_NAME":"STARLINK-4155","TLE_LINE1":"1 53036U 22076BC  22330.66862609  .00002431  00000-0  17073-3 0  9998","EPOCH":"2022-11-26T16:02:49.294176","EPHEMERIS_TYPE":"0","BSTAR":"0.00017073000000","RCS_SIZE":"MEDIUM","RA_OF_ASC_NODE":"56.7392","CENTER_NAME":"EARTH","OBJECT_ID":"2022-076BC","INCLINATION":"53.2192","DECAY_DATE":null,"TIME_SYSTEM":"UTC","MEAN_MOTION":"15.08854743","SEMIMAJOR_AXIS":"6917.835","OBJECT_TYPE":"PAYLOAD"},{"SEMIMAJOR_AXIS":"6917.884","OBJECT_TYPE":"PAYLOAD","DECAY_DATE":null,"MEAN_MOTION":"15.08838942","TIME_SYSTEM":"UTC","INCLINATION":"53.2201","CENTER_NAME":"EARTH","OBJECT_ID":"2022-076BD","RA_OF_ASC_NODE":"56.7425","RCS_SIZE":"LARGE","BSTAR":"0.00003127100000","EPHEMERIS_TYPE":"0","EPOCH":"2022-11-26T15:57:32.020416","TLE_LINE1":"1 53037U 22076BD  22330.66495394  .00000210  00000-0  31271-4 0  9992","MEAN_MOTION_DOT":"0.00000210","ARG_OF_PERICENTER":"42.8489","OBJECT_NAME":"STARLINK-4153","REV_AT_EPOCH":"2211","TLE_LINE2":"2 53037  53.2201  56.7425 0001990  42.8489 317.2658 15.08838942 22112","ECCENTRICITY":"0.00019900","ELEMENT_SET_NO":"999","PERIAPSIS":"538.372","MEAN_MOTION_DDOT":"0.0000000000000","REF_FRAME":"TEME","FILE":"3671048","LAUNCH_DATE":"2022-07-07","CLASSIFICATION_TYPE":"U","GP_ID":"218896092","COUNTRY_CODE":"US","MEAN_ANOMALY":"317.2658","MEAN_ELEMENT_THEORY":"SGP4","APOAPSIS":"541.125","PERIOD":"95.438","NORAD_CAT_ID":"53037","SITE":"AFETR"},{"ELEMENT_SET_NO":"999","ECCENTRICITY":"0.00017370","TLE_LINE2":"2 53038  53.2213  56.7635 0001737  47.5370 312.5768 15.08856501 22110","PERIAPSIS":"538.493","REF_FRAME":"TEME","MEAN_MOTION_DDOT":"0.0000000000000","ARG_OF_PERICENTER":"47.5370","MEAN_MOTION_DOT":"0.00001972","REV_AT_EPOCH":"2211","OBJECT_NAME":"STARLINK-4156","TLE_LINE1":"1 53038U 22076BE  22330.66127067  .00001972  00000-0  14190-3 0  9998","EPOCH":"2022-11-26T15:52:13.785888","SITE":"AFETR","NORAD_CAT_ID":"53038","MEAN_ANOMALY":"312.5768","PERIOD":"95.437","APOAPSIS":"540.897","MEAN_ELEMENT_THEORY":"SGP4","FILE":"3671048","LAUNCH_DATE":"2022-07-07","GP_ID":"218895916","COUNTRY_CODE":"US","CLASSIFICATION_TYPE":"U","DECAY_DATE":null,"TIME_SYSTEM":"UTC","MEAN_MOTION":"15.08856501","SEMIMAJOR_AXIS":"6917.830","OBJECT_TYPE":"PAYLOAD","EPHEMERIS_TYPE":"0","BSTAR":"0.00014190000000","RCS_SIZE":"LARGE","RA_OF_ASC_NODE":"56.7635","CENTER_NAME":"EARTH","OBJECT_ID":"2022-076BE","INCLINATION":"53.2213"},{"TIME_SYSTEM":"UTC","MEAN_MOTION":"15.01275631","DECAY_DATE":null,"OBJECT_TYPE":"PAYLOAD","SEMIMAJOR_AXIS":"6941.099","EPHEMERIS_TYPE":"0","BSTAR":"0.00044745000000","RCS_SIZE":"LARGE","RA_OF_ASC_NODE":"149.8190","OBJECT_ID":"2022-077A","CENTER_NAME":"EARTH","INCLINATION":"97.6524","PERIAPSIS":"561.086","REF_FRAME":"TEME","MEAN_MOTION_DDOT":"0.0000000000000","ELEMENT_SET_NO":"999","ECCENTRICITY":"0.00027050","TLE_LINE2":"2 53043  97.6524 149.8190 0002705  17.3731 342.7586 15.01275631 21052","REV_AT_EPOCH":"2105","OBJECT_NAME":"STARLINK-4362","ARG_OF_PERICENTER":"17.3731","MEAN_MOTION_DOT":"0.00005695","TLE_LINE1":"1 53043U 22077A   22330.83324201  .00005695  00000-0  44745-3 0  9998","EPOCH":"2022-11-26T19:59:52.109664","SITE":"AFWTR","NORAD_CAT_ID":"53043","APOAPSIS":"564.841","PERIOD":"95.918","MEAN_ELEMENT_THEORY":"SGP4","MEAN_ANOMALY":"342.7586","COUNTRY_CODE":"US","GP_ID":"218895035","CLASSIFICATION_TYPE":"U","LAUNCH_DATE":"2022-07-11","FILE":"3671048"},{"SITE":"AFWTR","NORAD_CAT_ID":"53044","COUNTRY_CODE":"US","GP_ID":"218895565","CLASSIFICATION_TYPE":"U","LAUNCH_DATE":"2022-07-11","FILE":"3671048","APOAPSIS":"564.607","PERIOD":"95.919","MEAN_ELEMENT_THEORY":"SGP4","MEAN_ANOMALY":"344.0762","REV_AT_EPOCH":"2104","OBJECT_NAME":"STARLINK-4349","ARG_OF_PERICENTER":"16.0536","MEAN_MOTION_DOT":"0.00000557","PERIAPSIS":"561.384","MEAN_MOTION_DDOT":"0.0000000000000","REF_FRAME":"TEME","ECCENTRICITY":"0.00023220","ELEMENT_SET_NO":"999","TLE_LINE2":"2 53044  97.6514 149.7423 0002322  16.0536 344.0762 15.01265303 21049","EPOCH":"2022-11-26T18:18:33.670944","TLE_LINE1":"1 53044U 22077B   22330.76288971  .00000557  00000-0  47964-4 0  9993","RCS_SIZE":"LARGE","RA_OF_ASC_NODE":"149.7423","EPHEMERIS_TYPE":"0","BSTAR":"0.00004796400000","INCLINATION":"97.6514","OBJECT_ID":"2022-077B","CENTER_NAME":"EARTH","OBJECT_TYPE":"PAYLOAD","SEMIMAJOR_AXIS":"6941.131","TIME_SYSTEM":"UTC","MEAN_MOTION":"15.01265303","DECAY_DATE":null},{"NORAD_CAT_ID":"53045","SITE":"AFWTR","MEAN_ANOMALY":"343.0172","APOAPSIS":"564.629","PERIOD":"95.919","MEAN_ELEMENT_THEORY":"SGP4","LAUNCH_DATE":"2022-07-11","FILE":"3671048","CLASSIFICATION_TYPE":"U","GP_ID":"218895741","COUNTRY_CODE":"US","TLE_LINE2":"2 53045  97.6512 149.7412 0002369  17.1132 343.0172 15.01268715 21045","ECCENTRICITY":"0.00023690","ELEMENT_SET_NO":"999","PERIAPSIS":"561.341","REF_FRAME":"TEME","MEAN_MOTION_DDOT":"0.0000000000000","MEAN_MOTION_DOT":"0.00001767","ARG_OF_PERICENTER":"17.1132","OBJECT_NAME":"STARLINK-4350","REV_AT_EPOCH":"2104","TLE_LINE1":"1 53045U 22077C   22330.76127784  .00001767  00000-0  14212-3 0  9991","EPOCH":"2022-11-26T18:16:14.405376","BSTAR":"0.00014212000000","EPHEMERIS_TYPE":"0","RA_OF_ASC_NODE":"149.7412","RCS_SIZE":"LARGE","CENTER_NAME":"EARTH","OBJECT_ID":"2022-077C","INCLINATION":"97.6512","DECAY_DATE":null,"MEAN_MOTION":"15.01268715","TIME_SYSTEM":"UTC","SEMIMAJOR_AXIS":"6941.120","OBJECT_TYPE":"PAYLOAD"}];
